{"type": "FeatureCollection", "features": [ {"type": "Feature", "properties": {"norad_id": 43622, "name": "BEIDOU-3 M13 (C32)", "group": "beidou", "lat": -40.51132388082425, "lon": -76.99865452549088, "alt_km": 21526.24105688523, "timestamp": "2025-12-21T14:40:48.182045+00:00", "meta": {"OBJECT_NAME": "BEIDOU-3 M13 (C32)", "OBJECT_ID": "2018-072A", "EPOCH": "2025-12-20T17:30:51.935328", "MEAN_MOTION": 1.8623112, "ECCENTRICITY": 0.00061831, "INCLINATION": 56.466, "RA_OF_ASC_NODE": 68.5556, "ARG_OF_PERICENTER": 298.5271, "MEAN_ANOMALY": 61.4541, "EPHEMERIS_TYPE": 0, "CLASSIFICATION_TYPE": "U", "NORAD_CAT_ID": 43622, "ELEMENT_SET_NO": 999, "REV_AT_EPOCH": 4933, "BSTAR": 0, "MEAN_MOTION_DOT": -4.1e-07, "MEAN_MOTION_DDOT": 0}, "tle": {"line1": "1 43622U 18072A   25354.72976777 -.00000041  00000+0  00000+0 0  9990", "line2": "2 43622  56.4660  68.5556 0006183 298.5271  61.4541  1.86231120 49337"}}, "geometry": {"type": "Point", "coordinates": [-76.99865452549088, -40.51132388082425]}}, {"type": "Feature", "properties": {"norad_id": 43623, "name": "BEIDOU-3 M14 (C33)", "group": "beidou", "lat": -31.31325842841086, "lon": 44.78627981207095, "alt_km": 21522.287853286434, "timestamp": "2025-12-21T14:40:48.182056+00:00", "meta": {"OBJECT_NAME": "BEIDOU-3 M14 (C33)", "OBJECT_ID": "2018-072B", "EPOCH": "2025-12-20T14:17:08.133792", "MEAN_MOTION": 1.86231122, "ECCENTRICITY": 0.00035209, "INCLINATION": 56.4674, "RA_OF_ASC_NODE": 68.5539, "ARG_OF_PERICENTER": 328.1178, "MEAN_ANOMALY": 31.9036, "EPHEMERIS_TYPE": 0, "CLASSIFICATION_TYPE": "U", "NORAD_CAT_ID": 43623, "ELEMENT_SET_NO": 999, "REV_AT_EPOCH": 4932, "BSTAR": 0, "MEAN_MOTION_DOT": -4.2e-07, "MEAN_MOTION_DDOT": 0}, "tle": {"line1": "1 43623U 18072B   25354.59523303 -.00000042  00000+0  00000+0 0  9990", "line2": "2 43623  56.4674  68.5539 0003520 328.1178  31.9036  1.86231122 49324"}}, "geometry": {"type": "Point", "coordinates": [44.78627981207095, -31.31325842841086]}}, {"type": "Feature", "properties": {"norad_id": 43647, "name": "BEIDOU-3 M16 (C35)", "group": "beidou", "lat": -28.339166827859, "lon": 149.02114126494828, "alt_km": 21551.3627836921, "timestamp": "2025-12-21T14:40:48.182068+00:00", "meta": {"OBJECT_NAME": "BEIDOU-3 M16 (C35)", "OBJECT_ID": "2018-078A", "EPOCH": "2025-12-21T06:57:26.615232", "MEAN_MOTION": 1.86232398, "ECCENTRICITY": 0.00073895, "INCLINATION": 54.254, "RA_OF_ASC_NODE": 306.2225, "ARG_OF_PERICENTER": 20.1677, "MEAN_ANOMALY": 339.8585, "EPHEMERIS_TYPE": 0, "CLASSIFICATION_TYPE": "U", "NORAD_CAT_ID": 43647, "ELEMENT_SET_NO": 999, "REV_AT_EPOCH": 4884, "BSTAR": 0, "MEAN_MOTION_DOT": -6.2e-07, "MEAN_MOTION_DDOT": 0}, "tle": {"line1": "1 43647U 18078A   25355.28989138 -.00000062  00000+0  00000+0 0  9993", "line2": "2 43647  54.2540 306.2225 0007389  20.1677 339.8585  1.86232398 48843"}}, "geometry": {"type": "Point", "coordinates": [149.02114126494828, -28.339166827859]}}, {"type": "Feature", "properties": {"norad_id": 43648, "name": "BEIDOU-3 M15 (C34)", "group": "beidou", "lat": 38.979406894248996, "lon": 90.57739134970113, "alt_km": 21526.838221469312, "timestamp": "2025-12-21T14:40:48.182079+00:00", "meta": {"OBJECT_NAME": "BEIDOU-3 M15 (C34)", "OBJECT_ID": "2018-078B", "EPOCH": "2025-12-20T21:10:18.962688", "MEAN_MOTION": 1.8623233, "ECCENTRICITY": 0.00039935, "INCLINATION": 54.2503, "RA_OF_ASC_NODE": 306.237, "ARG_OF_PERICENTER": 19.942, "MEAN_ANOMALY": 340.0692, "EPHEMERIS_TYPE": 0, "CLASSIFICATION_TYPE": "U", "NORAD_CAT_ID": 43648, "ELEMENT_SET_NO": 999, "REV_AT_EPOCH": 4885, "BSTAR": 0, "MEAN_MOTION_DOT": -6.5e-07, "MEAN_MOTION_DDOT": 0}, "tle": {"line1": "1 43648U 18078B   25354.88216392 -.00000065  00000+0  00000+0 0  9997", "line2": "2 43648  54.2503 306.2370 0003993  19.9420 340.0692  1.86232330 48853"}}, "geometry": {"type": "Point", "coordinates": [90.57739134970113, 38.979406894248996]}}, {"type": "Feature", "properties": {"norad_id": 43683, "name": "BEIDOU-3 G1 (C59)", "group": "beidou", "lat": -0.5231725258874186, "lon": 90.62745352485327, "alt_km": 35783.7076282265, "timestamp": "2025-12-21T14:40:48.182090+00:00", "meta": {"OBJECT_NAME": "BEIDOU-3 G1 (C59)", "OBJECT_ID": "2018-085A", "EPOCH": "2025-12-21T07:00:57.399264", "MEAN_MOTION": 1.00268218, "ECCENTRICITY": 0.00015585, "INCLINATION": 2.6281, "RA_OF_ASC_NODE": 102.715, "ARG_OF_PERICENTER": 46.0785, "MEAN_ANOMALY": 186.5697, "EPHEMERIS_TYPE": 0, "CLASSIFICATION_TYPE": "U", "NORAD_CAT_ID": 43683, "ELEMENT_SET_NO": 999, "REV_AT_EPOCH": 2627, "BSTAR": 0, "MEAN_MOTION_DOT": -2.57e-06, "MEAN_MOTION_DDOT": 0}, "tle": {"line1": "1 43683U 18085A   25355.29233101 -.00000257  00000+0  00000+0 0  9990", "line2": "2 43683   2.6281 102.7150 0001558  46.0785 186.5697  1.00268218 26277"}}, "geometry": {"type": "Point", "coordinates": [90.62745352485327, -0.5231725258874186]}}, {"type": "Feature", "properties": {"norad_id": 43706, "name": "BEIDOU-3 M17 (C36)", "group": "beidou", "lat": 18.26074268106081, "lon": -157.87647539317447, "alt_km": 21521.701253494346, "timestamp": "2025-12-21T14:40:48.182101+00:00", "meta": {"OBJECT_NAME": "BEIDOU-3 M17 (C36)", "OBJECT_ID": "2018-093A", "EPOCH": "2025-12-20T12:04:20.840736", "MEAN_MOTION": 1.86228485, "ECCENTRICITY": 0.00060883, "INCLINATION": 54.1751, "RA_OF_ASC_NODE": 188.3582, "ARG_OF_PERICENTER": 307.8758, "MEAN_ANOMALY": 51.559, "EPHEMERIS_TYPE": 0, "CLASSIFICATION_TYPE": "U", "NORAD_CAT_ID": 43706, "ELEMENT_SET_NO": 999, "REV_AT_EPOCH": 4820, "BSTAR": 0, "MEAN_MOTION_DOT": 9.7e-07, "MEAN_MOTION_DDOT": 0}, "tle": {"line1": "1 43706U 18093A   25354.50301899  .00000097  00000+0  00000+0 0  9999", "line2": "2 43706  54.1751 188.3582 0006088 307.8758  51.5590  1.86228485 48203"}}, "geometry": {"type": "Point", "coordinates": [-157.87647539317447, 18.26074268106081]}}, {"type": "Feature", "properties": {"norad_id": 43707, "name": "BEIDOU-3 M18 (C37)", "group": "beidou", "lat": 46.95808484889006, "lon": -42.398520056893766, "alt_km": 21531.95692427768, "timestamp": "2025-12-21T14:40:48.182113+00:00", "meta": {"OBJECT_NAME": "BEIDOU-3 M18 (C37)", "OBJECT_ID": "2018-093B", "EPOCH": "2025-12-20T21:39:28.587744", "MEAN_MOTION": 1.86226757, "ECCENTRICITY": 0.00062168, "INCLINATION": 54.1741, "RA_OF_ASC_NODE": 188.3365, "ARG_OF_PERICENTER": 353.7926, "MEAN_ANOMALY": 6.2524, "EPHEMERIS_TYPE": 0, "CLASSIFICATION_TYPE": "U", "NORAD_CAT_ID": 43707, "ELEMENT_SET_NO": 999, "REV_AT_EPOCH": 4821, "BSTAR": 0, "MEAN_MOTION_DOT": 9.5e-07, "MEAN_MOTION_DDOT": 0}, "tle": {"line1": "1 43707U 18093B   25354.90241421  .00000095  00000+0  00000+0 0  9996", "line2": "2 43707  54.1741 188.3365 0006216 353.7926   6.2524  1.86226757 48217"}}, "geometry": {"type": "Point", "coordinates": [-42.398520056893766, 46.95808484889006]}}, {"type": "Feature", "properties": {"norad_id": 44231, "name": "BEIDOU-2 G8 (C01)", "group": "beidou", "lat": 0.6151875689732877, "lon": 95.1612931984175, "alt_km": 35803.12864857201, "timestamp": "2025-12-21T14:40:48.182124+00:00", "meta": {"OBJECT_NAME": "BEIDOU-2 G8 (C01)", "OBJECT_ID": "2019-027A", "EPOCH": "2025-12-19T12:14:23.449632", "MEAN_MOTION": 1.00276563, "ECCENTRICITY": 0.0008196, "INCLINATION": 1.6785, "RA_OF_ASC_NODE": 74.7229, "ARG_OF_PERICENTER": 258.5641, "MEAN_ANOMALY": 83.1013, "EPHEMERIS_TYPE": 0, "CLASSIFICATION_TYPE": "U", "NORAD_CAT_ID": 44231, "ELEMENT_SET_NO": 999, "REV_AT_EPOCH": 2427, "BSTAR": 0, "MEAN_MOTION_DOT": -2.24e-06, "MEAN_MOTION_DDOT": 0}, "tle": {"line1": "1 44231U 19027A   25353.50999363 -.00000224  00000+0  00000+0 0  9992", "line2": "2 44231   1.6785  74.7229 0008196 258.5641  83.1013  1.00276563 24270"}}, "geometry": {"type": "Point", "coordinates": [95.1612931984175, 0.6151875689732877]}}, {"type": "Feature", "properties": {"norad_id": 44337, "name": "BEIDOU-3 IGSO-2 (C39)", "group": "beidou", "lat": -55.17496681511128, "lon": 70.5144000313387, "alt_km": 35733.41533839122, "timestamp": "2025-12-21T14:40:48.182136+00:00", "meta": {"OBJECT_NAME": "BEIDOU-3 IGSO-2 (C39)", "OBJECT_ID": "2019-035A", "EPOCH": "2025-12-20T20:45:51.571008", "MEAN_MOTION": 1.00268938, "ECCENTRICITY": 0.00375986, "INCLINATION": 55.2283, "RA_OF_ASC_NODE": 160.43, "ARG_OF_PERICENTER": 202.2266, "MEAN_ANOMALY": 157.9019, "EPHEMERIS_TYPE": 0, "CLASSIFICATION_TYPE": "U", "NORAD_CAT_ID": 44337, "ELEMENT_SET_NO": 999, "REV_AT_EPOCH": 2388, "BSTAR": 0, "MEAN_MOTION_DOT": -6.9e-07, "MEAN_MOTION_DDOT": 0}, "tle": {"line1": "1 44337U 19035A   25354.86518022 -.00000069  00000+0  00000+0 0  9994", "line2": "2 44337  55.2283 160.4300 0037598 202.2266 157.9019  1.00268938 23884"}}, "geometry": {"type": "Point", "coordinates": [70.5144000313387, -55.17496681511128]}}, {"type": "Feature", "properties": {"norad_id": 44542, "name": "BEIDOU-3 M24 (C46)", "group": "beidou", "lat": 48.945642404428035, "lon": -115.88654177753718, "alt_km": 21502.572334178974, "timestamp": "2025-12-21T14:40:48.182148+00:00", "meta": {"OBJECT_NAME": "BEIDOU-3 M24 (C46)", "OBJECT_ID": "2019-061A", "EPOCH": "2025-12-20T23:21:37.865088", "MEAN_MOTION": 1.86229471, "ECCENTRICITY": 0.00095916, "INCLINATION": 54.4004, "RA_OF_ASC_NODE": 188.7381, "ARG_OF_PERICENTER": 25.7188, "MEAN_ANOMALY": 334.3822, "EPHEMERIS_TYPE": 0, "CLASSIFICATION_TYPE": "U", "NORAD_CAT_ID": 44542, "ELEMENT_SET_NO": 999, "REV_AT_EPOCH": 4247, "BSTAR": 0, "MEAN_MOTION_DOT": 9.6e-07, "MEAN_MOTION_DDOT": 0}, "tle": {"line1": "1 44542U 19061A   25354.97335492  .00000096  00000+0  00000+0 0  9990", "line2": "2 44542  54.4004 188.7381 0009591  25.7188 334.3822  1.86229471 42471"}}, "geometry": {"type": "Point", "coordinates": [-115.88654177753718, 48.945642404428035]}}]}